$$SOE
2459580.500000000, A.D. 2022-Jan-01 00:00:00.0000, -4.910693842666543E+08, 3.684707289857435E+08, 5.772700774922192E+06,
2459587.500000000, A.D. 2022-Jan-08 00:00:00.0000, -4.973891660081278E+08, 3.642347641605148E+08, 5.805267381056294E+06,
2459594.500000000, A.D. 2022-Jan-15 00:00:00.0000, -5.036059664515464E+08, 3.599233446946407E+08, 5.836632494267926E+06,
2459601.500000000, A.D. 2022-Jan-22 00:00:00.0000, -5.097197575592056E+08, 3.555382658807037E+08, 5.866803888581842E+06,
2459608.500000000, A.D. 2022-Jan-29 00:00:00.0000, -5.157305199476576E+08, 3.510812888700978E+08, 5.895789351190850E+06,
2459615.500000000, A.D. 2022-Feb-05 00:00:00.0000, -5.216382443025099E+08, 3.465541412372404E+08, 5.923596829307526E+06,
2459622.500000000, A.D. 2022-Feb-12 00:00:00.0000, -5.274429306663858E+08, 3.419585164366195E+08, 5.950234292210519E+06,
2459629.500000000, A.D. 2022-Feb-19 00:00:00.0000, -5.331445869216307E+08, 3.372960745219269E+08, 5.975709623504430E+06,
2459636.500000000, A.D. 2022-Feb-26 00:00:00.0000, -5.387432277770389E+08, 3.325684434052905E+08, 6.000030604558378E+06,
2459643.500000000, A.D. 2022-Mar-05 00:00:00.0000, -5.442388740972891E+08, 3.277772200412120E+08, 6.023204923806712E+06,
2459650.500000000, A.D. 2022-Mar-12 00:00:00.0000, -5.496315523511981E+08, 3.229239714710849E+08, 6.045240185885027E+06,
2459657.500000000, A.D. 2022-Mar-19 00:00:00.0000, -5.549212941056911E+08, 3.180102357580018E+08, 6.066143916053340E+06,
2459664.500000000, A.D. 2022-Mar-26 00:00:00.0000, -5.601081355410556E+08, 3.130375228075929E+08, 6.085923557061762E+06,
2459671.500000000, A.D. 2022-Apr-02 00:00:00.0000, -5.651921169176502E+08, 3.080073150206798E+08, 6.104586447402671E+06,
2459678.500000000, A.D. 2022-Apr-09 00:00:00.0000, -5.701732817199985E+08, 3.029210677840725E+08, 6.122139756164670E+06,
2459685.500000000, A.D. 2022-Apr-16 00:00:00.0000, -5.750516751192011E+08, 2.977802104548916E+08, 6.138590394998685E+06,
2459692.500000000, A.D. 2022-Apr-23 00:00:00.0000, -5.798273430209147E+08, 2.925861489238575E+08, 6.153945112042397E+06,
2459699.500000000, A.D. 2022-Apr-30 00:00:00.0000, -5.845003335678196E+08, 2.873402675136862E+08, 6.168210755733162E+06,
2459706.500000000, A.D. 2022-May-07 00:00:00.0000, -5.890706980321671E+08, 2.820439282405145E+08, 6.181394266240567E+06,
2459713.500000000, A.D. 2022-May-14 00:00:00.0000, -5.935384897069775E+08, 2.766984704773268E+08, 6.193502515364960E+06,
2459720.500000000, A.D. 2022-May-21 00:00:00.0000, -5.979037628257426E+08, 2.713052117787029E+08, 6.204542243189782E+06,
2459727.500000000, A.D. 2022-May-28 00:00:00.0000, -6.021665719885917E+08, 2.658654489091662E+08, 6.214520057031453E+06,
2459734.500000000, A.D. 2022-Jun-04 00:00:00.0000, -6.063269718167548E+08, 2.603804587634613E+08, 6.223442441718668E+06,
2459741.500000000, A.D. 2022-Jun-11 00:00:00.0000, -6.103850166894947E+08, 2.548514991819934E+08, 6.231315768153027E+06,
2459748.500000000, A.D. 2022-Jun-18 00:00:00.0000, -6.143407605237327E+08, 2.492798096757211E+08, 6.238146297747374E+06,
2459755.500000000, A.D. 2022-Jun-25 00:00:00.0000, -6.181942565659542E+08, 2.436666120283391E+08, 6.243940177411959E+06,
2459762.500000000, A.D. 2022-Jul-02 00:00:00.0000, -6.219455570614306E+08, 2.380131107110229E+08, 6.248703407522440E+06,
2459769.500000000, A.D. 2022-Jul-09 00:00:00.0000, -6.255947124095911E+08, 2.323204932876514E+08, 6.252441761663303E+06,
2459776.500000000, A.D. 2022-Jul-16 00:00:00.0000, -6.291417698599129E+08, 2.265899318940966E+08, 6.255160751848087E+06,
2459783.500000000, A.D. 2022-Jul-23 00:00:00.0000, -6.325867739462489E+08, 2.208225858700008E+08, 6.256865847379044E+06,
2459790.500000000, A.D. 2022-Jul-30 00:00:00.0000, -6.359297685752668E+08, 2.150196021900877E+08, 6.257562665737092E+06,
2459797.500000000, A.D. 2022-Aug-06 00:00:00.0000, -6.391707971693684E+08, 2.091821143440985E+08, 6.257256858619735E+06,
2459804.500000000, A.D. 2022-Aug-13 00:00:00.0000, -6.423099016862978E+08, 2.033112424201872E+08, 6.255953994003922E+06,
2459811.500000000, A.D. 2022-Aug-20 00:00:00.0000, -6.453471220844885E+08, 1.974080938887721E+08, 6.253659537267610E+06,
2459818.500000000, A.D. 2022-Aug-27 00:00:00.0000, -6.482824961658664E+08, 1.914737643610107E+08, 6.250378865947396E+06,
2459825.500000000, A.D. 2022-Sep-03 00:00:00.0000, -6.511160595478247E+08, 1.855093382121616E+08, 6.246117286534339E+06,
2459832.500000000, A.D. 2022-Sep-10 00:00:00.0000, -6.538478456737783E+08, 1.795158890944923E+08, 6.240880047129549E+06,
2459839.500000000, A.D. 2022-Sep-17 00:00:00.0000, -6.564778858323052E+08, 1.734944803386772E+08, 6.234672343174838E+06,
2459846.500000000, A.D. 2022-Sep-24 00:00:00.0000, -6.590062091237900E+08, 1.674461651934153E+08, 6.227499306540258E+06,
2459853.500000000, A.D. 2022-Oct-01 00:00:00.0000, -6.614328421338719E+08, 1.613719868814553E+08, 6.219365954035111E+06,
2459860.500000000, A.D. 2022-Oct-08 00:00:00.0000, -6.637578079056922E+08, 1.552729789943962E+08, 6.210277100482158E+06,
2459867.500000000, A.D. 2022-Oct-15 00:00:00.0000, -6.659811251423254E+08, 1.491501674255586E+08, 6.200237419589676E+06,
2459874.500000000, A.D. 2022-Oct-22 00:00:00.0000, -6.681028098211093E+08, 1.430045721572066E+08, 6.189251714825980E+06,
2459881.500000000, A.D. 2022-Oct-29 00:00:00.0000, -6.701228767223492E+08, 1.368372063092922E+08, 6.177324958941452E+06,
2459888.500000000, A.D. 2022-Nov-05 00:00:00.0000, -6.720413387727392E+08, 1.306490751915580E+08, 6.164462133335337E+06,
2459895.500000000, A.D. 2022-Nov-12 00:00:00.0000, -6.738582061679884E+08, 1.244411766265726E+08, 6.150668150815375E+06,
2459902.500000000, A.D. 2022-Nov-19 00:00:00.0000, -6.755734859940777E+08, 1.182145015900192E+08, 6.135947849542275E+06,
2459909.500000000, A.D. 2022-Nov-26 00:00:00.0000, -6.771871820849177E+08, 1.119700347715270E+08, 6.120306001476631E+06,
2459916.500000000, A.D. 2022-Dec-03 00:00:00.0000, -6.786992949501517E+08, 1.057087550451045E+08, 6.103747319063753E+06,
2459923.500000000, A.D. 2022-Dec-10 00:00:00.0000, -6.801098217272788E+08, 9.943163586834121E+07, 6.086276457467146E+06,
2459930.500000000, A.D. 2022-Dec-17 00:00:00.0000, -6.814187561330926E+08, 9.313964558578970E+07, 6.067898008037094E+06,
2459937.500000000, A.D. 2022-Dec-24 00:00:00.0000, -6.826260883048092E+08, 8.683374757107228E+07, 6.048616467626605E+06,
2459944.500000000, A.D. 2022-Dec-31 00:00:00.0000, -6.837318041730161E+08, 8.051490031559242E+07, 6.028436159786195E+06,
2459951.500000000, A.D. 2023-Jan-07 00:00:00.0000, -6.847358842434686E+08, 7.418405842656080E+07, 6.007361175288774E+06,
2459958.500000000, A.D. 2023-Jan-14 00:00:00.0000, -6.856383037546548E+08, 6.784217503135687E+07, 5.985395553066865E+06,
2459965.500000000, A.D. 2023-Jan-21 00:00:00.0000, -6.864390348561475E+08, 6.149020241593428E+07, 5.962543501479443E+06,
2459972.500000000, A.D. 2023-Jan-28 00:00:00.0000, -6.871380471398147E+08, 5.512909070243787E+07, 5.938809307575669E+06,
2459979.500000000, A.D. 2023-Feb-04 00:00:00.0000, -6.877353067319331E+08, 4.875978759426782E+07, 5.914197201028634E+06,
2459986.500000000, A.D. 2023-Feb-11 00:00:00.0000, -6.882307757411720E+08, 4.238323899520643E+07, 5.888711321685517E+06,
2459993.500000000, A.D. 2023-Feb-18 00:00:00.0000, -6.886244121257727E+08, 3.600038967983018E+07, 5.862355729359202E+06,
2460000.500000000, A.D. 2023-Feb-25 00:00:00.0000, -6.889161697171261E+08, 2.961218385405098E+07, 5.835134418666838E+06,
2460007.500000000, A.D. 2023-Mar-04 00:00:00.0000, -6.891059982973658E+08, 2.321956562529345E+07, 5.807051331240155E+06,
2460014.500000000, A.D. 2023-Mar-11 00:00:00.0000, -6.891938437020631E+08, 1.682347938348200E+07, 5.778110362914638E+06,
2460021.500000000, A.D. 2023-Mar-18 00:00:00.0000, -6.891796479006449E+08, 1.042487004398965E+07, 5.748315357745156E+06,
2460028.500000000, A.D. 2023-Mar-25 00:00:00.0000, -6.890633488509184E+08, 4.024683105931472E+06, 5.717670066564347E+06,
2460035.500000000, A.D. 2023-Apr-01 00:00:00.0000, -6.888448797028859E+08, -2.376135080256459E+06, 5.686178063517109E+06,
2460042.500000000, A.D. 2023-Apr-08 00:00:00.0000, -6.885241679669832E+08, -8.776635610562030E+06, 5.653842777326122E+06,
2460049.500000000, A.D. 2023-Apr-15 00:00:00.0000, -6.881011369838443E+08, -1.517586499634433E+07, 5.620667761404417E+06,
2460056.500000000, A.D. 2023-Apr-22 00:00:00.0000, -6.875757078869001E+08, -2.157286585596218E+07, 5.586656787557252E+06,
2460063.500000000, A.D. 2023-Apr-29 00:00:00.0000, -6.869477993229058E+08, -2.796667807541291E+07, 5.551813696582077E+06,
2460070.500000000, A.D. 2023-May-06 00:00:00.0000, -6.862173266903182E+08, -3.435633865620247E+07, 5.516142312779398E+06,
2460077.500000000, A.D. 2023-May-13 00:00:00.0000, -6.853842018722310E+08, -4.074088114353742E+07, 5.479646438841026E+06,
2460084.500000000, A.D. 2023-May-20 00:00:00.0000, -6.844483332298005E+08, -4.711933512537855E+07, 5.442329869324846E+06,
2460091.500000000, A.D. 2023-May-27 00:00:00.0000, -6.834096256626242E+08, -5.349072583119327E+07, 5.404196402341122E+06,
2460098.500000000, A.D. 2023-Jun-03 00:00:00.0000, -6.822679806783414E+08, -5.985407380394705E+07, 5.365249846038021E+06,
2460105.500000000, A.D. 2023-Jun-10 00:00:00.0000, -6.810232964476269E+08, -6.620839465876926E+07, 5.325494016304117E+06,
2460112.500000000, A.D. 2023-Jun-17 00:00:00.0000, -6.796754677557095E+08, -7.255269898811145E+07, 5.284932712332226E+06,
2460119.500000000, A.D. 2023-Jun-24 00:00:00.0000, -6.782243855307494E+08, -7.888599235740462E+07, 5.243569644979998E+06,
2460126.500000000, A.D. 2023-Jul-01 00:00:00.0000, -6.766699356962538E+08, -8.520727456261410E+07, 5.201408362165123E+06,
2460133.500000000, A.D. 2023-Jul-08 00:00:00.0000, -6.750119990217603E+08, -9.151553732712530E+07, 5.158452391838450E+06,
2460140.500000000, A.D. 2023-Jul-15 00:00:00.0000, -6.732504532490121E+08, -9.780976326730408E+07, 5.114705488243531E+06,
2460147.500000000, A.D. 2023-Jul-22 00:00:00.0000, -6.713851739728503E+08, -1.040889271604137E+08, 5.070171573847786E+06,
$$EOE